OPTICUBE 04             
1 41851U 16067D   19085.84940585 -.00000298  00000-0 -20735-4 0  9997
2 41851  97.9126 182.4728 0007941 309.6561  50.3959 14.96772526129370
AEROCUBE 8D             
1 41852U 16067E   19086.18079674 -.00000244  00000-0 -16044-4 0  9997
2 41852  97.9138 182.6340 0008635 308.0275  52.0166 14.96661258129404
AEROCUBE 8C             
1 41853U 16067F   19086.20173570  .00000461  00000-0  45733-4 0  9997
2 41853  97.9135 182.5975 0008727 308.4284  51.6152 14.96624073129405
PROMETHEUS 2-1          
1 41854U 16067G   19085.91299662 -.00000138  00000-0 -67603-5 0  9990
2 41854  97.9145 182.4047 0009294 309.2608  50.7788 14.96814622129366
PROMETHEUS 2-3          
1 41855U 16067H   19085.84874978 -.00000035  00000-0  23007-5 0  9997
2 41855  97.9147 182.3521 0009496 309.5416  50.4965 14.96817734129359
INS-1B                  
1 41954U 17008G   19086.23118897  .00001275  00000-0  55993-4 0  9992
2 41954  97.4086 152.3413 0010937  81.7853 278.4624 15.23716596117096
BGUSAT                  
1 41999U 17008BD  19085.87077784  .00002000  00000-0  81174-4 0  9996
2 41999  97.4148 154.0109 0009992  96.1040 264.1337 15.25731202116514
DIDO-2                  
1 42000U 17008BE  19085.89092508  .00000702  00000-0  32150-4 0  9990
2 42000  97.4100 152.5395 0010271  98.4234 261.8167 15.23730759116449
PEASSS                  
1 42015U 17008BV  19086.16897241  .00001140  00000-0  49050-4 0  9998
2 42015  97.4104 153.6438 0008143 102.3101 257.9049 15.24651620117022
AL-FARABI 1             
1 42016U 17008BW  19085.87294999  .00001439  00000-0  60112-4 0  9990
2 42016  97.4118 153.7986 0008007 102.7368 257.4765 15.25227307117128
NAYIF-1 (EO-88)         
1 42017U 17008BX  19085.79660573  .00001487  00000-0  61969-4 0  9991
2 42017  97.4115 153.7323 0007988 103.0477 257.1653 15.25257993117131
PHOENIX                 
1 42706U 98067LP  19086.07521091  .00118801  16433-4  35855-3 0  9997
2 42706  51.6248 336.7393 0004263 193.1187 166.9709 15.92000871106554
ALTAIR PATHFINDER       
1 42711U 98067LS  19086.18567645  .00028779  00000-0  19335-3 0  9998
2 42711  51.6347   1.0914 0004052 160.0305 200.0854 15.74944813105904
SHARC                   
1 42712U 98067LT  19086.14330372  .00149799  19363-4  47909-3 0  9990
2 42712  51.6285 353.2259 0005014 176.2613 183.8432 15.90756737106242
ZA-AEROSAT              
1 42713U 98067LU  19086.08068144  .00077103  00000-0  27039-3 0  9994
2 42713  51.6311 342.9105 0004284 179.1905 180.9108 15.88520586106136
CSUNSAT1                
1 42715U 98067LW  19086.10233213  .00128469  17499-4  35194-3 0  9997
2 42715  51.6273 338.4801 0005327 189.7064 170.3841 15.93794089106190
NJUST-1                 
1 42722U 98067MB  19086.01045500  .00051880  00000-0  23253-3 0  9996
2 42722  51.6367 349.1003 0004564 185.1690 276.5092 15.83616422105113
LILACSAT-1 (LO-90)      
1 42725U 98067ME  19086.06473362  .02096248  12007-4  64534-3 0  9995
2 42725  51.6334 328.9418 0006261 268.6041  91.5493 16.25907828105297
NSIGHT                  
1 42726U 98067MF  19086.18493147  .00017908  00000-0  16338-3 0  9991
2 42726  51.6383  14.8222 0004588 199.1221 160.9604 15.67951366104705
SNUSAT-1B               
1 42727U 98067MG  19086.16618560  .01001016  11783-4  59026-3 0  9997
2 42727  51.6217 329.5820 0009263 233.9630 126.0528 16.17820066105255
SNUSAT-1                
1 42733U 98067MN  19073.81661424  .22721454  12576-4  28234-3 0  9995
2 42733  51.6021  29.3648 0005433 200.7020 239.9908 16.49371243103244
BEEAGLESAT              
1 42736U 98067MR  19086.08913830  .00157137  20947-4  37648-3 0  9999
2 42736  51.6273 336.7895 0005865 211.4090 148.6569 15.96185888105105
UCLSAT                  
1 42765U 17036A   19085.68129550  .00001205  00000-0  54893-4 0  9991
2 42765  97.3615 145.4510 0012231 157.6242 202.5531 15.22521414 98274
LITUANICASAT-2          
1 42768U 17036D   19085.85631849  .00001909  00000-0  85327-4 0  9999
2 42768  97.3646 145.1892 0016288 149.7595 210.4585 15.22430201 97550
AALTO-1                 
1 42775U 17036L   19085.86271296  .00000757  00000-0  36925-4 0  9994
2 42775  97.3602 144.5656 0014965 148.8245 211.3882 15.21186804 97469
URSA MAIOR              
1 42776U 17036M   19085.89622174  .00000815  00000-0  39420-4 0  9991
2 42776  97.3611 144.7197 0014814 148.6577 211.5544 15.21308379 97472
COMPASS 2               
1 42777U 17036N   19085.81600191  .00001537  00000-0  69006-4 0  9994
2 42777  97.3645 145.5954 0013591 149.9649 210.2370 15.22597722 97505
DIAMOND RED             
1 42783U 17036U   19085.82891279  .00000965  00000-0  45213-4 0  9999
2 42783  97.3615 145.2637 0012907 158.1899 201.9889 15.22012854 97491
PEGASUS                 
1 42784U 17036V   19085.82350320  .00001090  00000-0  50264-4 0  9999
2 42784  97.3619 145.4383 0012803 158.0246 202.1542 15.22282509 97503
DIAMOND GREEN           
1 42785U 17036W   19085.82772943  .00000975  00000-0  45652-4 0  9995
2 42785  97.3617 145.2841 0012802 158.7374 201.4397 15.22012016 97567
DIAMOND BLUE            
1 42786U 17036X   19085.82673189  .00000977  00000-0  45708-4 0  9992
2 42786  97.3617 145.2821 0012636 158.8886 201.2874 15.22011833 97485
NUDTSAT                 
1 42787U 17036Y   19085.93730070  .00001609  00000-0  71015-4 0  9991
2 42787  97.3666 146.0967 0010503 154.2063 205.9699 15.23142962 97393
SUCHAI                  
1 42788U 17036Z   19085.78669082  .00001318  00000-0  59516-4 0  9998
2 42788  97.3623 145.6464 0012408 157.2342 202.9447 15.22658786 97587
SKCUBE                  
1 42789U 17036AA  19085.79739613  .00001204  00000-0  54741-4 0  9997
2 42789  97.3619 145.6155 0012264 157.1675 203.0109 15.22575220 97508
VZLUSAT-1               
1 42790U 17036AB  19085.72717881  .00001647  00000-0  72590-4 0  9998
2 42790  97.3632 145.8930 0011888 156.6539 203.5241 15.23149206 97517
ROBUSTA-1B              
1 42792U 17036AD  19085.80296791  .00001220  00000-0  55173-4 0  9996
2 42792  97.3619 145.7472 0011838 157.5807 202.5949 15.22738510 97523
CICERO 6                
1 42793U 17036AE  19086.10556228  .00000846  00000-0  39544-4 0  9992
2 42793  97.3604 145.8943 0011021 157.5932 202.5788 15.22406223 97631
D-SAT                   
1 42794U 17036AF  19085.92345014  .00000224  00000-0  24688-4 0  9994
2 42794  97.5512 134.2606 0128069  61.2463 300.1552 14.91044994 95855
TOKI                    
1 42820U 98067MU  19086.06661808  .00137159  18396-4  37112-3 0  9999
2 42820  51.6277 341.9607 0004934 185.5447 174.5507 15.93999193 98497
MAZAALAI (NUMSAT-1)     
1 42822U 98067MW  19086.09866497  .00115359  16113-4  35313-3 0  9999
2 42822  51.6295 343.7359 0004830 182.8517 177.2463 15.91739749 98450
BRAC ONNESHA            
1 42823U 98067MX  19085.15616543  .00141048  18652-4  40878-3 0  9997
2 42823  51.6271 347.9160 0005838 181.7301 178.3686 15.92676510 98310
NIGERIAEDUSAT-1         
1 42824U 98067MY  19086.08791089  .00112448  15835-4  35172-3 0  9993
2 42824  51.6303 344.4828 0005562 188.1934 171.8982 15.91330630 98436
CORVUS BC2              
1 42846U 17042X   19085.71030378  .00000193  00000-0  24408-4 0  9995
2 42846  97.5752 343.0151 0009147 344.4994  15.5944 14.91937120 92495
CORVUS BC1              
1 42847U 17042Y   19085.87035780  .00000211  00000-0  26080-4 0  9994
2 42847  97.5752 343.2617 0008781 343.5353  16.5580 14.92037298 92515
SILU-1 (SILKROAD 1)     
1 42903U 17021F   19086.21286722  .00315341  53881-4  38760-3 0  9996
2 42903  42.7688  26.6650 0015223 191.5225 307.2902 16.06860988 94769
MIRATA                  
1 43015U 17073C   19085.71950210  .00001399  00000-0  11356-3 0  9990
2 43015  97.7186  10.2142 0257577  71.4712 291.4299 14.78766169 72884
MAKERSAT 0              
1 43016U 17073D   19085.72110154  .00000971  00000-0  80175-4 0  9998
2 43016  97.7217  10.4065 0259500  71.7211 291.2049 14.78582251 72880
ASTERIA                 
1 43020U 98067NH  19085.33612878  .00023051  00000-0  21671-3 0  9991
2 43020  51.6434  29.5507 0002829 140.5909 219.5293 15.67023603 76615
DELLINGR (RBLE)         
1 43021U 98067NJ  19086.11484325  .00008934  00000-0  10771-3 0  9995
2 43021  51.6398  33.9142 0002894 130.8941 229.2303 15.61625370 76623
AEROCUBE 7B (OCSD B)    
1 43042U 17071F   19085.51841569  .00001497  00000-0  46031-4 0  9990
2 43042  51.6393 104.2714 0004132 205.5801 154.4980 15.40597217 73105
AEROCUBE 7C (OCSD C)    
1 43043U 17071G   19086.23243638  .00003052  00000-0  83534-4 0  9992
2 43043  51.6380 100.8015 0004405 210.8592 149.2135 15.40615899 73186
CHEFSAT                 
1 43044U 17071H   19085.64218732  .00006446  00000-0  15411-3 0  9992
2 43044  51.6382  99.9484 0004048 208.3626 151.7140 15.42784302 73148
ASGARDIA 1              
1 43049U 17071N   19086.19126109  .00003206  00000-0  86885-4 0  9999
2 43049  51.6388 100.5474 0001840 229.0154 131.0672 15.40740695 73179
ISARA                   
1 43050U 17071P   19085.89123424  .00005172  00000-0  12724-3 0  9998
2 43050  51.6377  99.3299 0001561 226.2680 133.8177 15.42366476 73175
PROPCUBE 2 (FAUNA)      
1 43052U 17071R   19085.88677031  .00003025  00000-0  81929-4 0  9996
2 43052  51.6385 101.5309 0001759 222.4866 137.5983 15.40974554 73139
CORVUS BC3              
1 43118U 18004H   19086.21760678  .00000774  00000-0  36271-4 0  9992
2 43118  97.4950 153.8199 0010594 175.7000 184.4329 15.22695320 66770
MICROMAS-2A             
1 43131U 18004W   19085.89486330  .00001737  00000-0  75118-4 0  9993
2 43131  97.4972 154.0078 0009585 178.1262 182.0013 15.23782623 66759
CICERO 7                
1 43143U 18004AJ  19085.79582086  .00001413  00000-0  61372-4 0  9998
2 43143  97.4961 154.1159 0007437 185.4148 174.7010 15.23977557 66756
GOMX-4B                 
1 43196U 18015E   19086.24605666  .00000267  00000-0  13999-4 0  9997
2 43196  97.3782 215.0413 0017421 239.1217 120.8309 15.23841855 63630
